NORAD_CAT_ID,OBJECT_NAME,OBJECT_TYPE,EPOCH,MEAN_MOTION,ECCENTRICITY,INCLINATION,RA_OF_ASC_NODE,ARG_OF_PERICENTER,MEAN_ANOMALY,BSTAR,MEAN_MOTION_DOT,MEAN_MOTION_DDOT,TLE_LINE0,TLE_LINE1,TLE_LINE2,SEMIMAJOR_AXIS,PERIOD,APOGEE,PERIGEE,DECAYED
53907.0,STARLINK-5063,PAYLOAD,2022-11-26 14:00:01,15.2419734,0.0001274,53.2167,307.0153,74.9036,210.2917,-0.04294,-0.0097785,0.0,0 STARLINK-5063,1 53907U 22119X   22330.58334491 -.00977850  00000-0 -42940-1 0  9994,2 53907  53.2167 307.0153 0001274  74.9036 210.2917 15.24197340  1304,6871.334,94.476,494.074,492.323,0.0
53907.0,STARLINK-5063,PAYLOAD,2022-11-26 22:00:00,15.23340194,0.0001485,53.2169,305.4829,50.2869,264.6194,-0.041163,-0.00918245,0.0,0 STARLINK-5063,1 53907U 22119X   22330.91667824 -.00918245  00000-0 -41163-1 0  9999,2 53907  53.2169 305.4829 0001485  50.2869 264.6194 15.23340194 10286,6873.911,94.529,496.797,494.755,0.0
53907.0,STARLINK-5063,PAYLOAD,2022-11-27 06:00:00,15.22528673,0.0001409999999999,53.2168,303.9549,67.2371,276.3802,-0.042516,-0.00925218,0.0,0 STARLINK-5063,1 53907U 22119X   22331.25001157 -.00925218  00000-0 -42516-1 0  9999,2 53907  53.2168 303.9549 0001410  67.2371 276.3802 15.22528673 10332,6876.353,94.579,499.18800000000016,497.249,0.0
53907.0,STARLINK-5063,PAYLOAD,2022-11-27 14:00:01,15.21829297,0.000136,53.2168,302.4265,49.5499,321.7418,-0.051223,-0.01077813,0.0,0 STARLINK-5063,1 53907U 22119X   22331.58334491 -.01077813  00000-0 -51223-1 0  9990,2 53907  53.2168 302.4265 0001360  49.5499 321.7418 15.21829297  1309,6878.46,94.623,501.26,499.39,0.0
53907.0,STARLINK-5063,PAYLOAD,2022-11-27 22:00:00,15.21037595,0.0001354,53.2165,300.8998,58.9501,339.0855,-0.053941,-0.01120582,0.0,0 STARLINK-5063,1 53907U 22119X   22331.91667824 -.01120582  00000-0 -53941-1 0  9997,2 53907  53.2165 300.8998 0001354  58.9501 339.0855 15.21037595  1301,6880.847,94.672,503.643,501.78,0.0
53907.0,STARLINK-5063,PAYLOAD,2022-11-28 06:00:00,15.20156666,0.0001347,53.2171,299.3777,100.256,323.5914,-0.050605,-0.01018675,0.0,0 STARLINK-5063,1 53907U 22119X   22332.25001157 -.01018675  00000-0 -50605-1 0  9999,2 53907  53.2171 299.3777 0001347 100.2560 323.5914 15.20156666 10497,6883.505,94.727,506.297,504.442,0.0
53907.0,STARLINK-5063,PAYLOAD,2022-11-28 14:00:01,15.19409258,0.0001248,53.2169,297.8549,108.1556,340.4578,-0.056603,-0.01120987,0.0,0 STARLINK-5063,1 53907U 22119X   22332.58334491 -.01120987  00000-0 -56603-1 0  9999,2 53907  53.2169 297.8549 0001248 108.1556 340.4578 15.19409258 10542,6885.762,94.774,508.486,506.767,0.0
53907.0,STARLINK-5063,PAYLOAD,2022-11-28 22:00:01,15.18485166,0.0001489,53.2167,296.3337,110.5626,1.9914,-0.04966,-0.00957071,0.0,0 STARLINK-5063,1 53907U 22119X   22332.91668981 -.00957071  00000-0 -49660-1 0  9996,2 53907  53.2167 296.3337 0001489 110.5626   1.9914 15.18485166  1309,6888.555,94.831,511.446,509.394,0.0
53907.0,STARLINK-5063,PAYLOAD,2022-11-29 06:00:00,15.17716114,0.0001473,53.2171,294.8177,116.4249,18.8849,-0.054206,-0.01016496,0.0,0 STARLINK-5063,1 53907U 22119X   22333.25001157 -.01016496  00000-0 -54206-1 0  9990,2 53907  53.2171 294.8177 0001473 116.4249  18.8849 15.17716114 10648,6890.882,94.879,513.762,511.732,0.0
53907.0,STARLINK-5063,PAYLOAD,2022-11-29 14:00:01,15.16963268,0.0001503,53.2169,293.3003,114.8154,42.3939,-0.060304,-0.01113199,0.0,0 STARLINK-5063,1 53907U 22119X   22333.58335648 -.01113199  00000-0 -60304-1 0  9995,2 53907  53.2169 293.3003 0001503 114.8154  42.3939 15.16963268 10698,6893.1619999999975,94.926,516.063,513.991,0.0
53907.0,STARLINK-5063,PAYLOAD,2022-11-29 22:00:00,15.16173607,0.0001664,53.2167,291.7852,122.477,55.5455,-0.0636549999999999,-0.01146003,0.0,0 STARLINK-5063,1 53907U 22119X   22333.91667824 -.01146003  00000-0 -63655-1 0  9998,2 53907  53.2167 291.7852 0001664 122.4770  55.5455 15.16173607  1304,6895.555,94.976,518.567,516.2719999999998,0.0
53907.0,STARLINK-5063,PAYLOAD,2022-11-30 06:00:00,15.15358908,0.0001626999999999,53.2175,290.2747,119.7102,78.2231,-0.065204,-0.01146777,0.0,0 STARLINK-5063,1 53907U 22119X   22334.25001157 -.01146777  00000-0 -65204-1 0  9997,2 53907  53.2175 290.2747 0001627 119.7102  78.2231 15.15358908 10792,6898.026,95.027,521.013,518.769,0.0
53907.0,STARLINK-5063,PAYLOAD,2022-11-30 14:00:01,15.14546772,0.0001634,53.2175,288.7627,123.7845,93.1445,-0.0669039999999999,-0.01149545,0.0,0 STARLINK-5063,1 53907U 22119X   22334.58335648 -.01149545  00000-0 -66904-1 0  9992,2 53907  53.2175 288.7627 0001634 123.7845  93.1445 15.14546772  1305,6900.4919999999975,95.078,523.484,521.229,0.0
53907.0,STARLINK-5063,PAYLOAD,2022-11-30 22:00:00,15.13731739,0.0001702,53.2175,287.2538,125.7032,109.1175,-0.068285,-0.01146726,0.0,0 STARLINK-5063,1 53907U 22119X   22334.91667824 -.01146726  00000-0 -68285-1 0  9995,2 53907  53.2175 287.2538 0001702 125.7032 109.1175 15.13731739  1302,6902.969,95.129,526.008,523.659,0.0
53907.0,STARLINK-5063,PAYLOAD,2022-12-01 06:00:00,15.12916823,0.0001641999999999,53.2175,285.7487,123.6679,128.1288,-0.06976,-0.01144993,0.0,0 STARLINK-5063,1 53907U 22119X   22335.25001157 -.01144993  00000-0 -69760-1 0  9997,2 53907  53.2175 285.7487 0001642 123.6679 128.1288 15.12916823 10949,6905.446999999999,95.18,528.446,526.178,0.0
53907.0,STARLINK-5063,PAYLOAD,2022-12-01 14:00:01,15.12105513,0.0001881,53.2175,284.2424,138.6422,129.1534,-0.071669,-0.01149486,0.0,0 STARLINK-5063,1 53907U 22119X   22335.58334491 -.01149486  00000-0 -71669-1 0  9996,2 53907  53.2175 284.2424 0001881 138.6422 129.1534 15.12105513  1302,6907.917,95.231,531.081,528.4830000000002,0.0
53907.0,STARLINK-5063,PAYLOAD,2022-12-01 22:00:00,15.11270933,0.0001710999999999,53.2165,282.7388,122.7988,160.0268,-0.071202,-0.01118175,0.0,0 STARLINK-5063,1 53907U 22119X   22335.91667824 -.01118175  00000-0 -71202-1 0  9996,2 53907  53.2165 282.7388 0001711 122.7988 160.0268 15.11270933  1302,6910.46,95.284,533.507,531.143,0.0
53907.0,STARLINK-5063,PAYLOAD,2022-12-02 06:00:00,15.10475762,0.0001329,53.2175,281.2398,104.7641,192.095,-0.0747169999999999,-0.0114532,0.0,0 STARLINK-5063,1 53907U 22119X   22336.25001157 -.01145320  00000-0 -74717-1 0  9991,2 53907  53.2175 281.2398 0001329 104.7641 192.0950 15.10475762 11095,6912.885,95.334,535.669,533.831,0.0
53907.0,STARLINK-5063,PAYLOAD,2022-12-02 14:00:01,15.09433415,0.0001264999999999,53.2169,279.73900000000003,64.5625,245.4352,-0.03974,-0.00599234,0.0,0 STARLINK-5063,1 53907U 22119X   22336.58334491 -.00599234  00000-0 -39740-1 0  9990,2 53907  53.2169 279.7390 0001265  64.5625 245.4352 15.09433415  1305,6916.066999999999,95.4,538.807,537.057,0.0
53907.0,STARLINK-5063,PAYLOAD,2022-12-02 22:00:00,15.08644911,0.0001932,53.2157,278.2402,81.7898,240.3412,0.021992,0.00366409,0.0,0 STARLINK-5063,1 53907U 22119X   22336.91667824  .00366409  00000-0  21992-1 0  9990,2 53907  53.2157 278.2402 0001932  81.7898 240.3412 15.08644911 11197,6918.477,95.45,541.678,539.005,0.0
53907.0,STARLINK-5063,PAYLOAD,2022-12-03 06:00:00,15.08805502,0.0001729,53.2141,276.7449,59.4613,274.3275,0.0011252,0.00017648,0.0,0 STARLINK-5063,1 53907U 22119X   22337.25001157  .00017648  00000-0  11252-2 0  9996,2 53907  53.2141 276.7449 0001729  59.4613 274.3275 15.08805502 11251,6917.986,95.44,541.047,538.655,0.0
53907.0,STARLINK-5063,PAYLOAD,2022-12-03 14:00:01,15.08827949,0.0001602,53.2143,275.2468,62.8325,282.5271,0.00021561,3.144e-05,0.0,0 STARLINK-5063,1 53907U 22119X   22337.58334491  .00003144  00000-0  21561-3 0  9993,2 53907  53.2143 275.2468 0001602  62.8325 282.5271 15.08827949  1307,6917.917,95.438,540.89,538.674,0.0
53907.0,STARLINK-5063,PAYLOAD,2022-12-03 22:00:00,15.08862482,0.0001569,53.2145,273.7504,65.0585,291.8772,-0.0032163,-0.00051144,0.0,0 STARLINK-5063,1 53907U 22119X   22337.91667824 -.00051144  00000-0 -32163-2 0  9993,2 53907  53.2145 273.7504 0001569  65.0585 291.8772 15.08862482  1308,6917.812,95.436,540.762,538.591,0.0
53907.0,STARLINK-5063,PAYLOAD,2022-12-04 12:00:00,15.08845652,0.0001561,53.2143,271.1317,60.1554,227.0556,-0.0017248,-0.00027638,0.0,0 STARLINK-5063,1 53907U 22119X   22338.50001157 -.00027638  00000-0 -17248-2 0  9998,2 53907  53.2143 271.1317 0001561  60.1554 227.0556 15.08845652 11430,6917.863,95.437,540.808,538.648,0.0
53907.0,STARLINK-5063,PAYLOAD,2022-12-04 14:00:01,15.08833333,0.0001533,53.2144,270.7572,63.1819,316.931,-0.00036401,-6.075e-05,0.0,0 STARLINK-5063,1 53907U 22119X   22338.58334491 -.00006075  00000-0 -36401-3 0  9991,2 53907  53.2144 270.7572 0001533  63.1819 316.9310 15.08833333  1309,6917.901,95.438,540.826,538.705,0.0
53907.0,STARLINK-5063,PAYLOAD,2022-12-04 22:00:00,15.08840508,0.0001638,53.2146,269.2611,66.6033,325.0925,-0.001793,-0.00028711,0.0,0 STARLINK-5063,1 53907U 22119X   22338.91667824 -.00028711  00000-0 -17930-2 0  9993,2 53907  53.2146 269.2611 0001638  66.6033 325.0925 15.08840508  1305,6917.879,95.438,540.877,538.611,0.0
53907.0,STARLINK-5063,PAYLOAD,2022-12-05 06:00:00,15.08806005,0.0001763,53.2143,267.766,60.3754,342.9127,0.0037139,0.00059261,0.0,0 STARLINK-5063,1 53907U 22119X   22339.25001157  .00059261  00000-0  37139-2 0  9997,2 53907  53.2143 267.7660 0001763  60.3754 342.9127 15.08806005 11553,6917.984,95.44,541.069,538.63,0.0
53907.0,STARLINK-5063,PAYLOAD,2022-12-05 14:00:01,15.08829342,0.0001639,53.2143,266.2678,66.9677,347.9672,0.0017415,0.00027529,0.0,0 STARLINK-5063,1 53907U 22119X   22339.58335648  .00027529  00000-0  17415-2 0  9995,2 53907  53.2143 266.2678 0001639  66.9677 347.9672 15.08829342  1305,6917.913000000001,95.438,540.9119999999998,538.644,0.0
53907.0,STARLINK-5063,PAYLOAD,2022-12-05 22:00:01,15.08883465,0.0001638,53.2143,264.772,67.7382,358.7833,-0.0038366,-0.00060904,0.0,0 STARLINK-5063,1 53907U 22119X   22339.91668981 -.00060904  00000-0 -38366-2 0  9995,2 53907  53.2143 264.7720 0001638  67.7382 358.7833 15.08883465 11651,6917.748000000001,95.435,540.746,538.479,0.0
